{
  "type": "FeatureCollection",
  "features": [
    {
      "type": "Feature",
      "properties": {
        "norad_id": 35771,
        "name": "COSMOS 2251 DEB",
        "group": "cosmos-2251-debris",
        "lat": 46.856531404141236,
        "lon": 101.86335890870167,
        "alt_km": 884.2815737808614,
        "timestamp": "2025-12-18T21:31:51.401695+00:00",
        "meta_object_name": "COSMOS 2251 DEB",
        "meta_object_id": "1993-036ARR",
        "meta_epoch": "2025-12-15T14:45:16.238592",
        "meta_mean_motion": 14.13430046,
        "meta_eccentricity": 0.02280549,
        "meta_inclination": 74.1561,
        "meta_ra_of_asc_node": 305.27,
        "meta_arg_of_pericenter": 242.9998,
        "meta_mean_anomaly": 114.7698,
        "meta_ephemeris_type": 0,
        "meta_classification_type": "U",
        "meta_norad_cat_id": 35771,
        "meta_element_set_no": 999,
        "meta_rev_at_epoch": 82901,
        "meta_bstar": 0.0026764238,
        "meta_mean_motion_dot": 6.427e-05,
        "meta_mean_motion_ddot": 0,
        "tle_line1": "1 35771U 93036ARR 25349.61477128  .00006427  00000+0  26764-2 0  9998",
        "tle_line2": "2 35771  74.1561 305.2700 0228054 242.9998 114.7698 14.13430046829012"
      },
      "geometry": {
        "type": "Point",
        "coordinates": [
          101.86335890870167,
          46.856531404141236
        ]
      }
    },
    {
      "type": "Feature",
      "properties": {
        "norad_id": 35773,
        "name": "COSMOS 2251 DEB",
        "group": "cosmos-2251-debris",
        "lat": 3.7170132752954506,
        "lon": -29.922240918346628,
        "alt_km": 706.0300427618386,
        "timestamp": "2025-12-18T21:31:51.401705+00:00",
        "meta_object_name": "COSMOS 2251 DEB",
        "meta_object_id": "1993-036ART",
        "meta_epoch": "2025-12-18T06:44:01.826880",
        "meta_mean_motion": 14.62098853,
        "meta_eccentricity": 0.00453313,
        "meta_inclination": 74.0077,
        "meta_ra_of_asc_node": 330.1922,
        "meta_arg_of_pericenter": 128.6335,
        "meta_mean_anomaly": 231.8904,
        "meta_ephemeris_type": 0,
        "meta_classification_type": "U",
        "meta_norad_cat_id": 35773,
        "meta_element_set_no": 999,
        "meta_rev_at_epoch": 86920,
        "meta_bstar": 0.0004700624,
        "meta_mean_motion_dot": 2.367e-05,
        "meta_mean_motion_ddot": 0,
        "tle_line1": "1 35773U 93036ART 25352.28057670  .00002367  00000+0  47006-3 0  9995",
        "tle_line2": "2 35773  74.0077 330.1922 0045331 128.6335 231.8904 14.62098853869204"
      },
      "geometry": {
        "type": "Point",
        "coordinates": [
          -29.922240918346628,
          3.7170132752954506
        ]
      }
    },
    {
      "type": "Feature",
      "properties": {
        "norad_id": 35777,
        "name": "COSMOS 2251 DEB",
        "group": "cosmos-2251-debris",
        "lat": 13.127510682424862,
        "lon": -43.203344710322305,
        "alt_km": 1433.786673562785,
        "timestamp": "2025-12-18T21:31:51.401716+00:00",
        "meta_object_name": "COSMOS 2251 DEB",
        "meta_object_id": "1993-036ARX",
        "meta_epoch": "2025-12-17T15:56:28.783392",
        "meta_mean_motion": 13.41305398,
        "meta_eccentricity": 0.04520418,
        "meta_inclination": 73.7703,
        "meta_ra_of_asc_node": 314.8708,
        "meta_arg_of_pericenter": 208.9867,
        "meta_mean_anomaly": 332.4334,
        "meta_ephemeris_type": 0,
        "meta_classification_type": "U",
        "meta_norad_cat_id": 35777,
        "meta_element_set_no": 999,
        "meta_rev_at_epoch": 79750,
        "meta_bstar": 0.00020338614,
        "meta_mean_motion_dot": 1.83e-06,
        "meta_mean_motion_ddot": 0,
        "tle_line1": "1 35777U 93036ARX 25351.66422203  .00000183  00000+0  20339-3 0  9992",
        "tle_line2": "2 35777  73.7703 314.8708 0452041 208.9867 332.4334 13.41305398797502"
      },
      "geometry": {
        "type": "Point",
        "coordinates": [
          -43.203344710322305,
          13.127510682424862
        ]
      }
    },
    {
      "type": "Feature",
      "properties": {
        "norad_id": 35784,
        "name": "COSMOS 2251 DEB",
        "group": "cosmos-2251-debris",
        "lat": 62.11925860864908,
        "lon": -134.59888803715413,
        "alt_km": 721.4492748970115,
        "timestamp": "2025-12-18T21:31:51.401727+00:00",
        "meta_object_name": "COSMOS 2251 DEB",
        "meta_object_id": "1993-036ASE",
        "meta_epoch": "2025-12-17T23:28:57.859680",
        "meta_mean_motion": 14.50055355,
        "meta_eccentricity": 0.00415956,
        "meta_inclination": 74.0403,
        "meta_ra_of_asc_node": 79.8718,
        "meta_arg_of_pericenter": 209.9484,
        "meta_mean_anomaly": 149.9297,
        "meta_ephemeris_type": 0,
        "meta_classification_type": "U",
        "meta_norad_cat_id": 35784,
        "meta_element_set_no": 999,
        "meta_rev_at_epoch": 65782,
        "meta_bstar": 0.00024795111,
        "meta_mean_motion_dot": 9.44e-06,
        "meta_mean_motion_ddot": 0,
        "tle_line1": "1 35784U 93036ASE 25351.97844745  .00000944  00000+0  24795-3 0  9998",
        "tle_line2": "2 35784  74.0403  79.8718 0041595 209.9484 149.9297 14.50055355657829"
      },
      "geometry": {
        "type": "Point",
        "coordinates": [
          -134.59888803715413,
          62.11925860864908
        ]
      }
    },
    {
      "type": "Feature",
      "properties": {
        "norad_id": 35786,
        "name": "COSMOS 2251 DEB",
        "group": "cosmos-2251-debris",
        "lat": 29.394723163077906,
        "lon": 41.18007450010855,
        "alt_km": 686.2026808897863,
        "timestamp": "2025-12-18T21:31:51.401737+00:00",
        "meta_object_name": "COSMOS 2251 DEB",
        "meta_object_id": "1993-036ASG",
        "meta_epoch": "2025-12-17T11:00:13.182624",
        "meta_mean_motion": 14.66275248,
        "meta_eccentricity": 0.00336818,
        "meta_inclination": 74.0147,
        "meta_ra_of_asc_node": 34.662,
        "meta_arg_of_pericenter": 163.3391,
        "meta_mean_anomaly": 196.8894,
        "meta_ephemeris_type": 0,
        "meta_classification_type": "U",
        "meta_norad_cat_id": 35786,
        "meta_element_set_no": 999,
        "meta_rev_at_epoch": 73477,
        "meta_bstar": 0.00069598569,
        "meta_mean_motion_dot": 3.84e-05,
        "meta_mean_motion_ddot": 0,
        "tle_line1": "1 35786U 93036ASG 25351.45848591  .00003840  00000+0  69599-3 0  9995",
        "tle_line2": "2 35786  74.0147  34.6620 0033681 163.3391 196.8894 14.66275248734770"
      },
      "geometry": {
        "type": "Point",
        "coordinates": [
          41.18007450010855,
          29.394723163077906
        ]
      }
    },
    {
      "type": "Feature",
      "properties": {
        "norad_id": 35789,
        "name": "COSMOS 2251 DEB",
        "group": "cosmos-2251-debris",
        "lat": 43.63067071450147,
        "lon": 77.2345645761892,
        "alt_km": 786.2088703663512,
        "timestamp": "2025-12-18T21:31:51.401747+00:00",
        "meta_object_name": "COSMOS 2251 DEB",
        "meta_object_id": "1993-036ASK",
        "meta_epoch": "2025-12-17T01:26:23.250912",
        "meta_mean_motion": 14.35989528,
        "meta_eccentricity": 0.00475408,
        "meta_inclination": 74.0381,
        "meta_ra_of_asc_node": 276.4392,
        "meta_arg_of_pericenter": 14.7858,
        "meta_mean_anomaly": 345.4672,
        "meta_ephemeris_type": 0,
        "meta_classification_type": "U",
        "meta_norad_cat_id": 35789,
        "meta_element_set_no": 999,
        "meta_rev_at_epoch": 61289,
        "meta_bstar": 0.00011853028,
        "meta_mean_motion_dot": 3.23e-06,
        "meta_mean_motion_ddot": 0,
        "tle_line1": "1 35789U 93036ASK 25351.05999133  .00000323  00000+0  11853-3 0  9996",
        "tle_line2": "2 35789  74.0381 276.4392 0047540  14.7858 345.4672 14.35989528612894"
      },
      "geometry": {
        "type": "Point",
        "coordinates": [
          77.2345645761892,
          43.63067071450147
        ]
      }
    },
    {
      "type": "Feature",
      "properties": {
        "norad_id": 35793,
        "name": "COSMOS 2251 DEB",
        "group": "cosmos-2251-debris",
        "lat": 50.47299298173228,
        "lon": 68.37624525637194,
        "alt_km": 627.0122167919599,
        "timestamp": "2025-12-18T21:31:51.401758+00:00",
        "meta_object_name": "COSMOS 2251 DEB",
        "meta_object_id": "1993-036ASP",
        "meta_epoch": "2025-12-16T22:59:16.262304",
        "meta_mean_motion": 14.7878305,
        "meta_eccentricity": 0.00021826,
        "meta_inclination": 74.0414,
        "meta_ra_of_asc_node": 51.8941,
        "meta_arg_of_pericenter": 103.608,
        "meta_mean_anomaly": 69.9436,
        "meta_ephemeris_type": 0,
        "meta_classification_type": "U",
        "meta_norad_cat_id": 35793,
        "meta_element_set_no": 999,
        "meta_rev_at_epoch": 65859,
        "meta_bstar": 0.0012867323,
        "meta_mean_motion_dot": 9.439e-05,
        "meta_mean_motion_ddot": 0,
        "tle_line1": "1 35793U 93036ASP 25350.95782711  .00009439  00000+0  12867-2 0  9993",
        "tle_line2": "2 35793  74.0414  51.8941 0002182 103.6080  69.9436 14.78783050658591"
      },
      "geometry": {
        "type": "Point",
        "coordinates": [
          68.37624525637194,
          50.47299298173228
        ]
      }
    }
  ]
}